$$SOE
2460742.500000000, A.D. 2025-Mar-08 00:00:00.0000, 6.203972013370986E+09, 2.320827880526878E+09, 8.490862269067788E+07,
2460749.500000000, A.D. 2025-Mar-15 00:00:00.0000, 6.203229813692991E+09, 2.323436159698668E+09, 8.489349599263203E+07,
2460756.500000000, A.D. 2025-Mar-22 00:00:00.0000, 6.202486580736476E+09, 2.326043967154608E+09, 8.487835484257805E+07,
2460763.500000000, A.D. 2025-Mar-29 00:00:00.0000, 6.201742315950328E+09, 2.328651306948391E+09, 8.486319936016953E+07,
2460770.500000000, A.D. 2025-Apr-05 00:00:00.0000, 6.200997019585322E+09, 2.331258182495900E+09, 8.484802970139182E+07,
2460777.500000000, A.D. 2025-Apr-12 00:00:00.0000, 6.200250691296239E+09, 2.333864596614706E+09, 8.483284601370716E+07,
2460784.500000000, A.D. 2025-Apr-19 00:00:00.0000, 6.199503330325428E+09, 2.336470551670436E+09, 8.481764843848598E+07,
2460791.500000000, A.D. 2025-Apr-26 00:00:00.0000, 6.198754935539430E+09, 2.339076049627293E+09, 8.480243711895680E+07,
2460798.500000000, A.D. 2025-May-03 00:00:00.0000, 6.198005505432382E+09, 2.341681092022285E+09, 8.478721220458674E+07,
2460805.500000000, A.D. 2025-May-10 00:00:00.0000, 6.197255038124764E+09, 2.344285679872194E+09, 8.477197384979928E+07,
2460812.500000000, A.D. 2025-May-17 00:00:00.0000, 6.196503531394237E+09, 2.346889813472569E+09, 8.475672220017743E+07,
2460819.500000000, A.D. 2025-May-24 00:00:00.0000, 6.195750982912467E+09, 2.349493492034546E+09, 8.474145734565330E+07,
2460826.500000000, A.D. 2025-May-31 00:00:00.0000, 6.194997391105750E+09, 2.352096713470757E+09, 8.472617922772622E+07,
2460833.500000000, A.D. 2025-Jun-07 00:00:00.0000, 6.194242756238446E+09, 2.354699475535303E+09, 8.471088763592768E+07,
2460840.500000000, A.D. 2025-Jun-14 00:00:00.0000, 6.193487079354733E+09, 2.357301777651172E+09, 8.469558245591104E+07,
2460847.500000000, A.D. 2025-Jun-21 00:00:00.0000, 6.192730360295369E+09, 2.359903620153909E+09, 8.468026379025042E+07,
2460854.500000000, A.D. 2025-Jun-28 00:00:00.0000, 6.191972597917739E+09, 2.362505002716395E+09, 8.466493180926907E+07,
2460861.500000000, A.D. 2025-Jul-05 00:00:00.0000, 6.191213791002398E+09, 2.365105924111359E+09, 8.464958664729321E+07,
2460868.500000000, A.D. 2025-Jul-12 00:00:00.0000, 6.190453938655165E+09, 2.367706382506449E+09, 8.463422838781214E+07,
2460875.500000000, A.D. 2025-Jul-19 00:00:00.0000, 6.189693040394281E+09, 2.370306375716928E+09, 8.461885707322729E+07,
2460882.500000000, A.D. 2025-Jul-26 00:00:00.0000, 6.188931096132631E+09, 2.372905901359583E+09, 8.460347271540415E+07,
2460889.500000000, A.D. 2025-Aug-02 00:00:00.0000, 6.188168106120351E+09, 2.375504956929646E+09, 8.458807530289936E+07,
2460896.500000000, A.D. 2025-Aug-09 00:00:00.0000, 6.187404070871276E+09, 2.378103539786341E+09, 8.457266480167186E+07,
2460903.500000000, A.D. 2025-Aug-16 00:00:00.0000, 6.186638991150164E+09, 2.380701646984075E+09, 8.455724113721764E+07,
2460910.500000000, A.D. 2025-Aug-23 00:00:00.0000, 6.185872868313310E+09, 2.383299274966063E+09, 8.454180413285458E+07,
2460917.500000000, A.D. 2025-Aug-30 00:00:00.0000, 6.185105705331511E+09, 2.385896419834638E+09, 8.452635343256557E+07,
2460924.500000000, A.D. 2025-Sep-06 00:00:00.0000, 6.184337507077229E+09, 2.388493079198728E+09, 8.451088862046933E+07,
2460931.500000000, A.D. 2025-Sep-13 00:00:00.0000, 6.183568278205210E+09, 2.391089253115774E+09, 8.449540948750770E+07,
2460938.500000000, A.D. 2025-Sep-20 00:00:00.0000, 6.182798021899787E+09, 2.393684942483819E+09, 8.447991601099181E+07,
2460945.500000000, A.D. 2025-Sep-27 00:00:00.0000, 6.182026740547422E+09, 2.396280147995494E+09, 8.446440820441794E+07,
2460952.500000000, A.D. 2025-Oct-04 00:00:00.0000, 6.181254436317786E+09, 2.398874870193314E+09, 8.444888606676435E+07,
2460959.500000000, A.D. 2025-Oct-11 00:00:00.0000, 6.180481111279717E+09, 2.401469109683462E+09, 8.443334958858967E+07,
2460966.500000000, A.D. 2025-Oct-18 00:00:00.0000, 6.179706767335755E+09, 2.404062867233901E+09, 8.441779876652062E+07,
2460973.500000000, A.D. 2025-Oct-25 00:00:00.0000, 6.178931406114730E+09, 2.406656143768172E+09, 8.440223361420083E+07,
2460980.500000000, A.D. 2025-Nov-01 00:00:00.0000, 6.178155028861864E+09, 2.409248940270743E+09, 8.438665416725147E+07,
2460987.500000000, A.D. 2025-Nov-08 00:00:00.0000, 6.177377636360858E+09, 2.411841257572963E+09, 8.437106047634351E+07,
2460994.500000000, A.D. 2025-Nov-15 00:00:00.0000, 6.176599229035789E+09, 2.414433095961528E+09, 8.435545256984711E+07,
2461001.500000000, A.D. 2025-Nov-22 00:00:00.0000, 6.175819807635458E+09, 2.417024454830023E+09, 8.433983036689138E+07,
2461008.500000000, A.D. 2025-Nov-29 00:00:00.0000, 6.175039374346892E+09, 2.419615333508976E+09, 8.432419364742482E+07,
2461015.500000000, A.D. 2025-Dec-06 00:00:00.0000, 6.174257932060572E+09, 2.422205733138785E+09, 8.430854227685165E+07,
2461022.500000000, A.D. 2025-Dec-13 00:00:00.0000, 6.173475482220963E+09, 2.424795656215581E+09, 8.429287636987817E+07,
2461029.500000000, A.D. 2025-Dec-20 00:00:00.0000, 6.172692024755519E+09, 2.427385104833507E+09, 8.427719615665662E+07,
2461036.500000000, A.D. 2025-Dec-27 00:00:00.0000, 6.171907559008331E+09, 2.429974080215160E+09, 8.426150186143243E+07,
2461043.500000000, A.D. 2026-Jan-03 00:00:00.0000, 6.171122084219227E+09, 2.432562582915195E+09, 8.424579367719412E+07,
2461050.500000000, A.D. 2026-Jan-10 00:00:00.0000, 6.170335599658037E+09, 2.435150613018850E+09, 8.423007177081883E+07,
2461057.500000000, A.D. 2026-Jan-17 00:00:00.0000, 6.169548104646626E+09, 2.437738170244662E+09, 8.421433628996205E+07,
2461064.500000000, A.D. 2026-Jan-24 00:00:00.0000, 6.168759598546613E+09, 2.440325253974915E+09, 8.419858736649001E+07,
2461071.500000000, A.D. 2026-Jan-31 00:00:00.0000, 6.167970080736245E+09, 2.442911863207340E+09, 8.418282511380136E+07,
2461078.500000000, A.D. 2026-Feb-07 00:00:00.0000, 6.167179550637941E+09, 2.445497996371654E+09, 8.416704960782647E+07,
2461085.500000000, A.D. 2026-Feb-14 00:00:00.0000, 6.166388008049546E+09, 2.448083650996513E+09, 8.415126082734573E+07,
2461092.500000000, A.D. 2026-Feb-21 00:00:00.0000, 6.165595454166882E+09, 2.450668823804728E+09, 8.413545856534624E+07,
2461099.500000000, A.D. 2026-Feb-28 00:00:00.0000, 6.164801892212737E+09, 2.453253512390796E+09, 8.411964250527477E+07,
2461106.500000000, A.D. 2026-Mar-07 00:00:00.0000, 6.164007325613756E+09, 2.455837716531165E+09, 8.410381249171257E+07,
2461113.500000000, A.D. 2026-Mar-14 00:00:00.0000, 6.163211756500941E+09, 2.458421436794624E+09, 8.408796855034184E+07,
2461120.500000000, A.D. 2026-Mar-21 00:00:00.0000, 6.162415186316628E+09, 2.461004673350887E+09, 8.407211073060775E+07,
2461127.500000000, A.D. 2026-Mar-28 00:00:00.0000, 6.161617616518564E+09, 2.463587426006048E+09, 8.405623903956640E+07,
2461134.500000000, A.D. 2026-Apr-04 00:00:00.0000, 6.160819048777360E+09, 2.466169694499280E+09, 8.404035344352961E+07,
2461141.500000000, A.D. 2026-Apr-11 00:00:00.0000, 6.160019484941224E+09, 2.468751478700788E+09, 8.402445388315475E+07,
2461148.500000000, A.D. 2026-Apr-18 00:00:00.0000, 6.159218926927415E+09, 2.471332778704330E+09, 8.400854028701842E+07,
2461155.500000000, A.D. 2026-Apr-25 00:00:00.0000, 6.158417376586439E+09, 2.473913594828984E+09, 8.399261258087897E+07,
2461162.500000000, A.D. 2026-May-02 00:00:00.0000, 6.157614835570048E+09, 2.476493927500535E+09, 8.397667068758166E+07,
2461169.500000000, A.D. 2026-May-09 00:00:00.0000, 6.156811305328012E+09, 2.479073776946270E+09, 8.396071450093210E+07,
2461176.500000000, A.D. 2026-May-16 00:00:00.0000, 6.156006787611973E+09, 2.481653142841548E+09, 8.394474381030416E+07,
2461183.500000000, A.D. 2026-May-23 00:00:00.0000, 6.155201285538539E+09, 2.484232024930531E+09, 8.392875825485444E+07,
2461190.500000000, A.D. 2026-May-30 00:00:00.0000, 6.154394803133327E+09, 2.486810424940692E+09, 8.391275752409542E+07,
2461197.500000000, A.D. 2026-Jun-06 00:00:00.0000, 6.153587343038802E+09, 2.489388346517562E+09, 8.389674156633317E+07,
2461204.500000000, A.D. 2026-Jun-13 00:00:00.0000, 6.152778906051888E+09, 2.491965793378645E+09, 8.388071048486519E+07,
2461211.500000000, A.D. 2026-Jun-20 00:00:00.0000, 6.151969491990340E+09, 2.494542768612701E+09, 8.386466440681684E+07,
2461218.500000000, A.D. 2026-Jun-27 00:00:00.0000, 6.151159100189569E+09, 2.497119274784518E+09, 8.384860345236671E+07,
2461225.500000000, A.D. 2026-Jul-04 00:00:00.0000, 6.150347729629721E+09, 2.499695314070342E+09, 8.383252774076843E+07,
2461232.500000000, A.D. 2026-Jul-11 00:00:00.0000, 6.149535378946994E+09, 2.502270888292106E+09, 8.381643739882410E+07,
2461239.500000000, A.D. 2026-Jul-18 00:00:00.0000, 6.148722046421875E+09, 2.504845998876236E+09, 8.380033256514406E+07,
2461246.500000000, A.D. 2026-Jul-25 00:00:00.0000, 6.147907729968708E+09, 2.507420646739846E+09, 8.378421338794100E+07,
2461253.500000000, A.D. 2026-Aug-01 00:00:00.0000, 6.147092427174685E+09, 2.509994832056242E+09, 8.376808000782514E+07,
2461260.500000000, A.D. 2026-Aug-08 00:00:00.0000, 6.146276135603090E+09, 2.512568553863969E+09, 8.375193250280976E+07,
2461267.500000000, A.D. 2026-Aug-15 00:00:00.0000, 6.145458853775755E+09, 2.515141809969884E+09, 8.373577079417622E+07,
2461274.500000000, A.D. 2026-Aug-22 00:00:00.0000, 6.144640582073586E+09, 2.517714598367717E+09, 8.371959468274415E+07,
2461281.500000000, A.D. 2026-Aug-29 00:00:00.0000, 6.143821321265951E+09, 2.520286918799532E+09, 8.370340411329472E+07,
2461288.500000000, A.D. 2026-Sep-05 00:00:00.0000, 6.143001070802438E+09, 2.522858771592134E+09, 8.368719923705971E+07,
2461295.500000000, A.D. 2026-Sep-12 00:00:00.0000, 6.142179829321827E+09, 2.525430156264194E+09, 8.367098025108695E+07,
2461302.500000000, A.D. 2026-Sep-19 00:00:00.0000, 6.141357595504437E+09, 2.528001071448287E+09, 8.365474731255329E+07,
2461309.500000000, A.D. 2026-Sep-26 00:00:00.0000, 6.140534368409136E+09, 2.530571515194942E+09, 8.363850053055978E+07,
2461316.500000000, A.D. 2026-Oct-03 00:00:00.0000, 6.139710147543599E+09, 2.533141485208006E+09, 8.362223997580874E+07,
$$EOE